NORAD_CAT_ID,OBJECT_NAME,OBJECT_TYPE,EPOCH,MEAN_MOTION,ECCENTRICITY,INCLINATION,RA_OF_ASC_NODE,ARG_OF_PERICENTER,MEAN_ANOMALY,BSTAR,MEAN_MOTION_DOT,MEAN_MOTION_DDOT,TLE_LINE0,TLE_LINE1,TLE_LINE2,SEMIMAJOR_AXIS,PERIOD,APOGEE,PERIGEE,DECAYED
52871.0,STARLINK-4207,PAYLOAD,2022-09-09 14:00:01,15.48646114,0.0001776999999999,53.2172,349.8376,40.9306,119.8429,-0.0214509999999999,-0.01058179,0.0,0 STARLINK-4207,1 52871U 22062AT  22252.58334491 -.01058179  00000-0 -21451-1 0  9992,2 52871  53.2172 349.8376 0001777  40.9306 119.8429 15.48646114  1307,6798.823,92.984,421.896,419.48,0.0
52871.0,STARLINK-4207,PAYLOAD,2022-09-09 22:00:00,15.47887873,0.0001645,53.2173,348.245,42.852,176.8839,-0.022085,-0.01060479,0.0,0 STARLINK-4207,1 52871U 22062AT  22252.91667824 -.01060479  00000-0 -22085-1 0  9998,2 52871  53.2173 348.2450 0001645  42.8520 176.8839 15.47887873  1303,6801.043000000002,93.03,424.027,421.789,0.0
52871.0,STARLINK-4207,PAYLOAD,2022-09-10 14:00:01,15.46369129,0.0001679,53.2174,345.0680000000001,35.2375,299.6836,-0.023285,-0.0106036,0.0,0 STARLINK-4207,1 52871U 22062AT  22253.58334491 -.01060360  00000-0 -23285-1 0  9995,2 52871  53.2174 345.0680 0001679  35.2375 299.6836 15.46369129 13879,6805.495,93.121,428.503,426.217,0.0
52871.0,STARLINK-4207,PAYLOAD,2022-09-10 22:00:00,15.45608683,0.0001447,53.2174,343.4806,41.3103,349.8361,-0.023867,-0.01058704,0.0,0 STARLINK-4207,1 52871U 22062AT  22253.91667824 -.01058704  00000-0 -23867-1 0  9996,2 52871  53.2174 343.4806 0001447  41.3103 349.8361 15.45608683  1307,6807.727,93.167,430.577,428.607,0.0
52871.0,STARLINK-4207,PAYLOAD,2022-09-11 14:00:01,15.44089039,0.0001851,53.2176,340.3148,38.2834,102.5724,-0.025095,-0.01056841,0.0,0 STARLINK-4207,1 52871U 22062AT  22254.58334491 -.01056841  00000-0 -25095-1 0  9996,2 52871  53.2176 340.3148 0001851  38.2834 102.5724 15.44089039 14026,6812.193,93.259,435.319,432.797,0.0
52871.0,STARLINK-4207,PAYLOAD,2022-09-11 22:00:00,15.43330395,0.0001742,53.2174,338.7327,41.1322,153.2104,-0.025798,-0.01058506,0.0,0 STARLINK-4207,1 52871U 22062AT  22254.91667824 -.01058506  00000-0 -25798-1 0  9992,2 52871  53.2174 338.7327 0001742  41.1322 153.2104 15.43330395  1303,6814.425,93.305,437.477,435.103,0.0
52871.0,STARLINK-4207,PAYLOAD,2022-09-12 12:00:00,15.41998618,0.0001909,53.2174,335.9716,38.0242,157.7233,-0.026858,-0.01068684,0.0,0 STARLINK-4207,1 52871U 22062AT  22255.50001157 -.01068684  00000-0 -26858-1 0  9995,2 52871  53.2174 335.9716 0001909  38.0242 157.7233 15.41998618 14172,6818.348000000001,93.385,441.515,438.912,0.0
52871.0,STARLINK-4207,PAYLOAD,2022-09-12 14:00:01,15.41810826,0.0001738,53.2175,335.5779,36.7691,261.8068,-0.0271129999999999,-0.01071729,0.0,0 STARLINK-4207,1 52871U 22062AT  22255.58334491 -.01071729  00000-0 -27113-1 0  9992,2 52871  53.2175 335.5779 0001738  36.7691 261.8068 15.41810826  1309,6818.901999999999,93.397,441.952,439.582,0.0
52871.0,STARLINK-4207,PAYLOAD,2022-09-12 22:00:00,15.41052022,0.0001659,53.2173,334.0011,33.7155,315.6094,-0.0278649999999999,-0.01073606,0.0,0 STARLINK-4207,1 52871U 22062AT  22255.91667824 -.01073606  00000-0 -27865-1 0  9998,2 52871  53.2173 334.0011 0001659  33.7155 315.6094 15.41052022  1307,6821.14,93.443,444.137,441.874,0.0
52871.0,STARLINK-4207,PAYLOAD,2022-09-13 06:00:00,15.40290134,0.0001612,53.2175,332.427,37.2447,1.9164,-0.028435,-0.01068509,0.0,0 STARLINK-4207,1 52871U 22062AT  22256.25001157 -.01068509  00000-0 -28435-1 0  9997,2 52871  53.2175 332.4270 0001612  37.2447   1.9164 15.40290134 14281,6823.389,93.489,446.354,444.154,0.0
52871.0,STARLINK-4207,PAYLOAD,2022-09-13 14:00:01,15.39531701,0.0001815,53.2175,330.8572,35.5437,52.5389,-0.029223,-0.01070692,0.0,0 STARLINK-4207,1 52871U 22062AT  22256.58334491 -.01070692  00000-0 -29223-1 0  9995,2 52871  53.2175 330.8572 0001815  35.5437  52.5389 15.39531701  1309,6825.63,93.535,448.734,446.256,0.0
52871.0,STARLINK-4207,PAYLOAD,2022-09-13 22:00:00,15.38771879,0.0001754,53.2174,329.2859,39.0577,97.0359,-0.029941,-0.0106988,0.0,0 STARLINK-4207,1 52871U 22062AT  22256.91667824 -.01069880  00000-0 -29941-1 0  9995,2 52871  53.2174 329.2859 0001754  39.0577  97.0359 15.38771879  1306,6827.877,93.581,450.939,448.544,0.0
52871.0,STARLINK-4207,PAYLOAD,2022-09-14 06:00:00,15.38031934,0.0001706,53.2164,327.7185,40.8656,142.3141,-0.031451,-0.01094628,0.0,0 STARLINK-4207,1 52871U 22062AT  22257.25001157 -.01094628  00000-0 -31451-1 0  9991,2 52871  53.2164 327.7185 0001706  40.8656 142.3141 15.38031934 14448,6830.066999999999,93.626,453.097,450.766,0.0
52871.0,STARLINK-4207,PAYLOAD,2022-09-14 14:00:01,15.37143973,0.0001668,53.2168,326.1544,45.6418,183.793,-0.027126,-0.00918175,0.0,0 STARLINK-4207,1 52871U 22062AT  22257.58334491 -.00918175  00000-0 -27126-1 0  9992,2 52871  53.2168 326.1544 0001668  45.6418 183.7930 15.37143973  1302,6832.696999999999,93.68,455.701,453.422,0.0
52871.0,STARLINK-4207,PAYLOAD,2022-09-14 22:00:00,15.36428203,0.0001436,53.2168,324.5886,45.5866,229.0915,-0.029358,-0.00966319,0.0,0 STARLINK-4207,1 52871U 22062AT  22257.91667824 -.00966319  00000-0 -29358-1 0  9990,2 52871  53.2168 324.5886 0001436  45.5866 229.0915 15.36428203  1300,6834.819,93.724,457.665,455.702,0.0
52871.0,STARLINK-4207,PAYLOAD,2022-09-15 14:00:01,15.34985237,0.0001737,53.2168,321.4664,38.4796,323.9672,-0.034366,-0.01084421,0.0,0 STARLINK-4207,1 52871U 22062AT  22258.58334491 -.01084421  00000-0 -34366-1 0  9996,2 52871  53.2168 321.4664 0001737  38.4796 323.9672 15.34985237  1304,6839.101,93.812,462.154,459.778,0.0
52871.0,STARLINK-4207,PAYLOAD,2022-09-15 22:00:00,15.3421427,0.000165,53.2175,319.9037,35.6742,9.3146,-0.034672,-0.01068737,0.0,0 STARLINK-4207,1 52871U 22062AT  22258.91667824 -.01068737  00000-0 -34672-1 0  9994,2 52871  53.2175 319.9037 0001650  35.6742   9.3146 15.34214270  1305,6841.392,93.859,464.386,462.128,0.0
52871.0,STARLINK-4207,PAYLOAD,2022-09-16 02:00:01,15.33833725,0.0001724,53.2172,319.1241,41.222,204.6922,-0.035048,-0.01067417,0.0,0 STARLINK-4207,1 52871U 22062AT  22259.08334491 -.01067417  00000-0 -35048-1 0  9996,2 52871  53.2172 319.1241 0001724  41.2220 204.6922 15.33833725 14720,6842.524,93.882,465.568,463.209,0.0
52871.0,STARLINK-4207,PAYLOAD,2022-09-16 14:00:01,15.32691755,0.0001872,53.2175,316.7925,36.884,90.4352,-0.0361579999999999,-0.01062461,0.0,0 STARLINK-4207,1 52871U 22062AT  22259.58334491 -.01062461  00000-0 -36158-1 0  9998,2 52871  53.2175 316.7925 0001872  36.8840  90.4352 15.32691755  1309,6845.922,93.952,469.069,466.506,0.0
52871.0,STARLINK-4207,PAYLOAD,2022-09-16 22:00:00,15.3193426,0.0001831,53.2174,315.237,38.6653,128.4502,-0.037142,-0.0106532,0.0,0 STARLINK-4207,1 52871U 22062AT  22259.91667824 -.01065320  00000-0 -37142-1 0  9995,2 52871  53.2174 315.2370 0001831  38.6653 128.4502 15.31934260 14856,6848.179,93.999,471.298,468.79,0.0
52871.0,STARLINK-4207,PAYLOAD,2022-09-17 14:00:01,15.30413018,0.0001865,53.2175,312.1366,36.921,207.0484,-0.038781,-0.01060923,0.0,0 STARLINK-4207,1 52871U 22062AT  22260.58334491 -.01060923  00000-0 -38781-1 0  9995,2 52871  53.2175 312.1366 0001865  36.9210 207.0484 15.30413018  1306,6852.715999999999,94.092,475.859,473.30300000000005,0.0
52871.0,STARLINK-4207,PAYLOAD,2022-09-17 22:00:00,15.29656356,0.0001551,53.2176,310.5864,45.6209,235.4068,-0.039914,-0.01065981,0.0,0 STARLINK-4207,1 52871U 22062AT  22260.91667824 -.01065981  00000-0 -39914-1 0  9999,2 52871  53.2176 310.5864 0001551  45.6209 235.4068 15.29656356 15006,6854.976,94.139,477.904,475.778,0.0
52871.0,STARLINK-4207,PAYLOAD,2022-09-18 14:00:01,15.28135903,0.0001443999999999,53.2174,307.4967,46.348,306.121,-0.0417079999999999,-0.01062997,0.0,0 STARLINK-4207,1 52871U 22062AT  22261.58335648 -.01062997  00000-0 -41708-1 0  9997,2 52871  53.2174 307.4967 0001444  46.3480 306.1210 15.28135903  1305,6859.522,94.232,482.378,480.397,0.0
52871.0,STARLINK-4207,PAYLOAD,2022-09-18 22:00:00,15.27376985,0.000157,53.2175,305.9518,38.8423,347.8844,-0.0427699999999999,-0.01064831,0.0,0 STARLINK-4207,1 52871U 22062AT  22261.91667824 -.01064831  00000-0 -42770-1 0  9997,2 52871  53.2175 305.9518 0001570  38.8423 347.8844 15.27376985 15153,6861.794,94.279,484.736,482.582,0.0
52871.0,STARLINK-4207,PAYLOAD,2022-09-19 14:00:01,15.25855932,0.0001658,53.2174,302.873,42.1909,50.4375,-0.044606,-0.01060621,0.0,0 STARLINK-4207,1 52871U 22062AT  22262.58334491 -.01060621  00000-0 -44606-1 0  9995,2 52871  53.2174 302.8730 0001658  42.1909  50.4375 15.25855932  1308,6866.353,94.373,489.357,487.08,0.0
52871.0,STARLINK-4207,PAYLOAD,2022-09-19 22:00:00,15.25097383,0.0001808,53.2175,301.3335,37.8575,86.3539,-0.0457329999999999,-0.01062589,0.0,0 STARLINK-4207,1 52871U 22062AT  22262.91667824 -.01062589  00000-0 -45733-1 0  9998,2 52871  53.2175 301.3335 0001808  37.8575  86.3539 15.25097383 15304,6868.63,94.42,491.737,489.253,0.0
52871.0,STARLINK-4207,PAYLOAD,2022-09-20 14:00:01,15.23576729,0.0001701,53.2174,298.2652,47.5466,137.0905,-0.047698,-0.0105901,0.0,0 STARLINK-4207,1 52871U 22062AT  22263.58334491 -.01059010  00000-0 -47698-1 0  9990,2 52871  53.2174 298.2652 0001701  47.5466 137.0905 15.23576729  1308,6873.2,94.514,496.234,493.895,0.0
52871.0,STARLINK-4207,PAYLOAD,2022-09-20 22:00:01,15.22818283,0.000176,53.2174,296.731,42.9607,170.5848,-0.048887,-0.01060939,0.0,0 STARLINK-4207,1 52871U 22062AT  22263.91668981 -.01060939  00000-0 -48887-1 0  9994,2 52871  53.2174 296.7310 0001760  42.9607 170.5848 15.22818283  1304,6875.482,94.562,498.557,496.136,0.0
52871.0,STARLINK-4207,PAYLOAD,2022-09-21 22:00:00,15.20539012,0.0001568,53.2174,292.1448,44.9843,249.5545,-0.052224,-0.010595,0.0,0 STARLINK-4207,1 52871U 22062AT  22264.91667824 -.01059500  00000-0 -52224-1 0  9992,2 52871  53.2174 292.1448 0001568  44.9843 249.5545 15.20539012  1305,6882.351,94.703,505.295,503.137,0.0
